{
  "type": "FeatureCollection",
  "features": [
    {
      "type": "Feature",
      "properties": {
        "name": "Lake Päijänne",
        "description": "YT:EPIC FINLAND ROAD TRIP | 3 Week Itinerary | Lakeland & Lapland"
      },
      "geometry": {
        "type": "Point",
        "coordinates": [25.415950659637314, 61.498261396178634]
      }
    },
    {
      "type": "Feature",
      "properties": {
        "name": "Porvoo",
        "description": "YT:EPIC FINLAND ROAD TRIP | 3 Week Itinerary | Lakeland & Lapland"
      },
      "geometry": {
        "type": "Point",
        "coordinates": [25.665305590830624, 60.39525808875082]
      }
    },
    {
      "type": "Feature",
      "properties": {
        "name": "Olavinlinna Savolina",
        "description": "YT:EPIC FINLAND ROAD TRIP | 3 Week Itinerary | Lakeland & Lapland"
      },
      "geometry": {
        "type": "Point",
        "coordinates": [28.901657236470164, 61.864053220237615]
      }
    },
    {
      "type": "Feature",
      "properties": {
        "name": "The Silent People, parking",
        "description": "YT:EPIC FINLAND ROAD TRIP | 3 Week Itinerary | Lakeland & Lapland</br><a hre='https://www.suomussalmi.fi/fi/kulttuuri-vapaa-aika-ja-nuoret/kulttuuri/hiljainen-kansa'>Website</a>"
      },
      "geometry": {
        "type": "Point",
        "coordinates": [28.904171724247163, 65.09385742076581]
      }
    },
    {
      "type": "Feature",
      "properties": {
        "name": "Santa Claus Village",
        "description": "YT:EPIC FINLAND ROAD TRIP | 3 Week Itinerary | Lakeland & Lapland"
      },
      "geometry": {
        "type": "Point",
        "coordinates": [25.84744116913099, 66.54439620299316]
      }
    },
    {
      "type": "Feature",
      "properties": {
        "name": "Pallas-Yllästunturi National Park",
        "description": "According to WHO data, the world’s cleanest air has been measured at Pallas, Lapland."
      },
      "geometry": {
        "type": "Point",
        "coordinates": [24.134120793182927, 67.96867555099833]
      }
    },
    {
      "type": "Feature",
      "properties": {
        "name": "Hilltop Forest Spa, Inkoo",
        "description": "Luxury spa meets nature in this modern forest spa with woodland views in Inkoo.<a href='https://www.visitfinland.com/en/articles/best-luxury-spa-experiences-in-finland/'>website</a>"
      },
      "geometry": {
        "type": "Point",
        "coordinates": [23.92562655804942, 60.08368520040133]
      }
    },
    {
      "type": "Feature",
      "properties": {
        "name": "Haikko Spa, Porvoo",
        "description": "Venture beyond Helsinki to the outskirts of the medieval town of Porvoo, where you’ll find the exclusive Haikko Spa among the city’s quaint surrounds.<a href='https://www.visitfinland.com/en/articles/best-luxury-spa-experiences-in-finland/'>website</a>"
      },
      "geometry": {
        "type": "Point",
        "coordinates": [25.62221699999745, 60.353235228148215]
      }
    },
    {
      "type": "Feature",
      "properties": {
        "name": "Arctic Sauna World",
        "description": "For an icy luxury spa experience, you can head north to Lapland and relax by the stunning Lake Jerisjӓrvi.<a href='https://www.visitfinland.com/en/articles/best-luxury-spa-experiences-in-finland/'>website</a>"
      },
      "geometry": {
        "type": "Point",
        "coordinates": [24.03943701144397, 67.94549546303897]
      }
    },
    {
      "type": "Feature",
      "properties": {
        "name": "Puumala",
        "description": "In Finland’s southeastern corner, Ruokolahti is the starting point of the Rte 62 drive through some of the Lakeland region’s most pristine scenery.<a href='https://www.lonelyplanet.com/articles/best-road-trips-in-finland'>website</a>"
      },
      "geometry": {
        "type": "Point",
        "coordinates": [28.175340961641325, 61.51845547014584]
      }
    }
  ]
}
